start=new Date('2023-06-10T00:00:00.000Z').valueOf();
sats=[{"TIME_SYSTEM":"UTC","MEAN_ELEMENT_THEORY":"SGP4","MEAN_ANOMALY":"265.6007","TLE_LINE1":"1 45541U 20025L   23160.64771603  .00021437  00000-0  14526-2 0  9991","CLASSIFICATION_TYPE":"U","EPOCH":"2023-06-09T15:32:42.664992","RA_OF_ASC_NODE":"293.9379","REF_FRAME":"TEME","COUNTRY_CODE":"US","TLE_LINE2":"2 45541  53.0536 293.9379 0001095  94.5107 265.6007 15.06427217173750","EPHEMERIS_TYPE":"0","INCLINATION":"53.0536","SITE":"AFETR","GP_ID":"233576655","ARG_OF_PERICENTER":"94.5107","MEAN_MOTION_DDOT":"0.0000000000000","FILE":"3929125","BSTAR":"0.00145260000000","REV_AT_EPOCH":"17375","MEAN_MOTION":"15.06427217","LAUNCH_DATE":"2020-04-22","OBJECT_TYPE":"PAYLOAD","PERIAPSIS":"546.372","ELEMENT_SET_NO":"999","OBJECT_ID":"2020-025L","DECAY_DATE":null,"OBJECT_NAME":"STARLINK-1369","APOAPSIS":"547.888","SEMIMAJOR_AXIS":"6925.265","RCS_SIZE":"LARGE","CENTER_NAME":"EARTH","PERIOD":"95.590","NORAD_CAT_ID":"45541","MEAN_MOTION_DOT":"0.00021437","ECCENTRICITY":"0.00010950"},{"RA_OF_ASC_NODE":"293.4899","TIME_SYSTEM":"UTC","MEAN_ELEMENT_THEORY":"SGP4","MEAN_ANOMALY":"262.5729","CLASSIFICATION_TYPE":"U","TLE_LINE1":"1 45542U 20025M   23160.74723409  .00018873  00000-0  12815-2 0  9993","EPOCH":"2023-06-09T17:56:01.025376","INCLINATION":"53.0529","REF_FRAME":"TEME","COUNTRY_CODE":"US","TLE_LINE2":"2 45542  53.0529 293.4899 0000886  97.5361 262.5729 15.06428891173775","EPHEMERIS_TYPE":"0","ARG_OF_PERICENTER":"97.5361","MEAN_MOTION_DDOT":"0.0000000000000","BSTAR":"0.00128150000000","FILE":"3929125","SITE":"AFETR","GP_ID":"233576904","OBJECT_TYPE":"PAYLOAD","REV_AT_EPOCH":"17377","MEAN_MOTION":"15.06428891","LAUNCH_DATE":"2020-04-22","PERIAPSIS":"546.511","ELEMENT_SET_NO":"999","OBJECT_ID":"2020-025M","DECAY_DATE":null,"APOAPSIS":"547.739","OBJECT_NAME":"STARLINK-1371","CENTER_NAME":"EARTH","RCS_SIZE":"LARGE","PERIOD":"95.590","SEMIMAJOR_AXIS":"6925.260","MEAN_MOTION_DOT":"0.00018873","ECCENTRICITY":"0.00008860","NORAD_CAT_ID":"45542"},{"INCLINATION":"53.0550","TLE_LINE2":"2 45543  53.0550 293.9219 0001106  91.1021 269.0095 15.06435023172851","EPHEMERIS_TYPE":"0","REF_FRAME":"TEME","COUNTRY_CODE":"US","RA_OF_ASC_NODE":"293.9219","CLASSIFICATION_TYPE":"U","TLE_LINE1":"1 45543U 20025N   23160.65140341  .00023611  00000-0  15972-2 0  9995","EPOCH":"2023-06-09T15:38:01.254624","TIME_SYSTEM":"UTC","MEAN_ANOMALY":"269.0095","MEAN_ELEMENT_THEORY":"SGP4","OBJECT_TYPE":"PAYLOAD","LAUNCH_DATE":"2020-04-22","REV_AT_EPOCH":"17285","MEAN_MOTION":"15.06435023","MEAN_MOTION_DDOT":"0.0000000000000","BSTAR":"0.00159720000000","FILE":"3929125","ARG_OF_PERICENTER":"91.1021","GP_ID":"233575654","SITE":"AFETR","APOAPSIS":"547.872","OBJECT_NAME":"STARLINK-1372","OBJECT_ID":"2020-025N","DECAY_DATE":null,"ELEMENT_SET_NO":"999","PERIAPSIS":"546.340","ECCENTRICITY":"0.00011060","MEAN_MOTION_DOT":"0.00023611","NORAD_CAT_ID":"45543","PERIOD":"95.590","CENTER_NAME":"EARTH","RCS_SIZE":"LARGE","SEMIMAJOR_AXIS":"6925.241"},{"RA_OF_ASC_NODE":"293.8362","MEAN_ANOMALY":"292.8319","MEAN_ELEMENT_THEORY":"SGP4","TIME_SYSTEM":"UTC","CLASSIFICATION_TYPE":"U","TLE_LINE1":"1 45544U 20025P   23160.66983297  .00021991  00000-0  14896-2 0  9995","EPOCH":"2023-06-09T16:04:33.568608","INCLINATION":"53.0527","COUNTRY_CODE":"US","REF_FRAME":"TEME","EPHEMERIS_TYPE":"0","TLE_LINE2":"2 45544  53.0527 293.8362 0000483  67.2721 292.8319 15.06425280173760","ARG_OF_PERICENTER":"67.2721","BSTAR":"0.00148960000000","FILE":"3929125","MEAN_MOTION_DDOT":"0.0000000000000","SITE":"AFETR","GP_ID":"233575904","OBJECT_TYPE":"PAYLOAD","MEAN_MOTION":"15.06425280","REV_AT_EPOCH":"17376","LAUNCH_DATE":"2020-04-22","ELEMENT_SET_NO":"999","PERIAPSIS":"546.802","DECAY_DATE":null,"OBJECT_ID":"2020-025P","APOAPSIS":"547.471","OBJECT_NAME":"STARLINK-1373","CENTER_NAME":"EARTH","RCS_SIZE":"LARGE","PERIOD":"95.591","SEMIMAJOR_AXIS":"6925.271","ECCENTRICITY":"0.00004830","MEAN_MOTION_DOT":"0.00021991","NORAD_CAT_ID":"45544"},{"SEMIMAJOR_AXIS":"6925.205","PERIOD":"95.589","CENTER_NAME":"EARTH","RCS_SIZE":"LARGE","NORAD_CAT_ID":"45545","ECCENTRICITY":"0.00008940","MEAN_MOTION_DOT":"0.00029856","OBJECT_ID":"2020-025Q","DECAY_DATE":null,"PERIAPSIS":"546.451","ELEMENT_SET_NO":"999","OBJECT_NAME":"STARLINK-1374","APOAPSIS":"547.689","GP_ID":"233576155","SITE":"AFETR","MEAN_MOTION_DDOT":"0.0000000000000","FILE":"3929125","BSTAR":"0.00201220000000","ARG_OF_PERICENTER":"98.0554","LAUNCH_DATE":"2020-04-22","REV_AT_EPOCH":"17375","MEAN_MOTION":"15.06446884","OBJECT_TYPE":"PAYLOAD","TLE_LINE1":"1 45545U 20025Q   23160.75460495  .00029856  00000-0  20122-2 0  9993","CLASSIFICATION_TYPE":"U","EPOCH":"2023-06-09T18:06:37.867680","TIME_SYSTEM":"UTC","MEAN_ANOMALY":"262.0537","MEAN_ELEMENT_THEORY":"SGP4","RA_OF_ASC_NODE":"293.4563","TLE_LINE2":"2 45545  53.0533 293.4563 0000894  98.0554 262.0537 15.06446884173752","EPHEMERIS_TYPE":"0","REF_FRAME":"TEME","COUNTRY_CODE":"US","INCLINATION":"53.0533"},{"OBJECT_TYPE":"PAYLOAD","MEAN_MOTION":"15.06424054","REV_AT_EPOCH":"17317","LAUNCH_DATE":"2020-04-22","ARG_OF_PERICENTER":"116.1096","BSTAR":"0.00112610000000","FILE":"3928916","MEAN_MOTION_DDOT":"0.0000000000000","SITE":"AFETR","GP_ID":"233552050","INCLINATION":"53.0537","COUNTRY_CODE":"US","REF_FRAME":"TEME","EPHEMERIS_TYPE":"0","TLE_LINE2":"2 45546  53.0537 294.0047 0000799 116.1096 243.9976 15.06424054173174","RA_OF_ASC_NODE":"294.0047","MEAN_ANOMALY":"243.9976","MEAN_ELEMENT_THEORY":"SGP4","TIME_SYSTEM":"UTC","CLASSIFICATION_TYPE":"U","TLE_LINE1":"1 45546U 20025R   23160.63297108  .00016542  00000-0  11261-2 0  9992","EPOCH":"2023-06-09T15:11:28.701312","ECCENTRICITY":"0.00007990","MEAN_MOTION_DOT":"0.00016542","NORAD_CAT_ID":"45546","CENTER_NAME":"EARTH","RCS_SIZE":"LARGE","PERIOD":"95.591","SEMIMAJOR_AXIS":"6925.275","APOAPSIS":"547.693","OBJECT_NAME":"STARLINK-1375","ELEMENT_SET_NO":"999","PERIAPSIS":"546.587","DECAY_DATE":null,"OBJECT_ID":"2020-025R"},{"RCS_SIZE":"LARGE","CENTER_NAME":"EARTH","PERIOD":"95.590","SEMIMAJOR_AXIS":"6925.246","MEAN_MOTION_DOT":"0.00018954","ECCENTRICITY":"0.00010250","NORAD_CAT_ID":"45547","ELEMENT_SET_NO":"999","PERIAPSIS":"546.402","DECAY_DATE":null,"OBJECT_ID":"2020-025S","APOAPSIS":"547.821","OBJECT_NAME":"STARLINK-1377","ARG_OF_PERICENTER":"101.6514","FILE":"3929125","BSTAR":"0.00128680000000","MEAN_MOTION_DDOT":"0.0000000000000","SITE":"AFETR","GP_ID":"233575154","OBJECT_TYPE":"PAYLOAD","MEAN_MOTION":"15.06433305","REV_AT_EPOCH":"17377","LAUNCH_DATE":"2020-04-22","RA_OF_ASC_NODE":"293.7218","MEAN_ELEMENT_THEORY":"SGP4","MEAN_ANOMALY":"258.4591","TIME_SYSTEM":"UTC","EPOCH":"2023-06-09T16:41:42.260928","TLE_LINE1":"1 45547U 20025S   23160.69562802  .00018954  00000-0  12868-2 0  9998","CLASSIFICATION_TYPE":"U","INCLINATION":"53.0533","COUNTRY_CODE":"US","REF_FRAME":"TEME","EPHEMERIS_TYPE":"0","TLE_LINE2":"2 45547  53.0533 293.7218 0001025 101.6514 258.4591 15.06433305173773"},{"OBJECT_NAME":"STARLINK-1378","APOAPSIS":"547.858","OBJECT_ID":"2020-025T","DECAY_DATE":null,"PERIAPSIS":"546.381","ELEMENT_SET_NO":"999","NORAD_CAT_ID":"45548","MEAN_MOTION_DOT":"0.00022869","ECCENTRICITY":"0.00010660","SEMIMAJOR_AXIS":"6925.254","PERIOD":"95.590","CENTER_NAME":"EARTH","RCS_SIZE":"LARGE","TLE_LINE2":"2 45548  53.0535 293.9081 0001066  91.3369 268.7742 15.06430750173755","EPHEMERIS_TYPE":"0","REF_FRAME":"TEME","COUNTRY_CODE":"US","INCLINATION":"53.0535","EPOCH":"2023-06-09T15:43:19.676640","TLE_LINE1":"1 45548U 20025T   23160.65508885  .00022869  00000-0  15479-2 0  9997","CLASSIFICATION_TYPE":"U","TIME_SYSTEM":"UTC","MEAN_ELEMENT_THEORY":"SGP4","MEAN_ANOMALY":"268.7742","RA_OF_ASC_NODE":"293.9081","LAUNCH_DATE":"2020-04-22","REV_AT_EPOCH":"17375","MEAN_MOTION":"15.06430750","OBJECT_TYPE":"PAYLOAD","GP_ID":"233575404","SITE":"AFETR","MEAN_MOTION_DDOT":"0.0000000000000","BSTAR":"0.00154790000000","FILE":"3929125","ARG_OF_PERICENTER":"91.3369"},{"MEAN_MOTION_DOT":"0.00021944","ECCENTRICITY":"0.00012520","NORAD_CAT_ID":"45550","CENTER_NAME":"EARTH","RCS_SIZE":"LARGE","PERIOD":"95.590","SEMIMAJOR_AXIS":"6925.264","APOAPSIS":"547.996","OBJECT_NAME":"STARLINK-1390","ELEMENT_SET_NO":"999","PERIAPSIS":"546.262","DECAY_DATE":null,"OBJECT_ID":"2020-025V","OBJECT_TYPE":"PAYLOAD","MEAN_MOTION":"15.06427595","REV_AT_EPOCH":"17375","LAUNCH_DATE":"2020-04-22","ARG_OF_PERICENTER":"98.7271","BSTAR":"0.00148640000000","FILE":"3929125","MEAN_MOTION_DDOT":"0.0000000000000","SITE":"AFETR","GP_ID":"233576656","INCLINATION":"53.0539","COUNTRY_CODE":"US","REF_FRAME":"TEME","EPHEMERIS_TYPE":"0","TLE_LINE2":"2 45550  53.0539 293.6753 0001252  98.7271 261.3859 15.06427595173756","RA_OF_ASC_NODE":"293.6753","MEAN_ELEMENT_THEORY":"SGP4","MEAN_ANOMALY":"261.3859","TIME_SYSTEM":"UTC","TLE_LINE1":"1 45550U 20025V   23160.64673914  .00021944  00000-0  14864-2 0  9995","CLASSIFICATION_TYPE":"U","EPOCH":"2023-06-09T15:31:18.261696"},{"NORAD_CAT_ID":"45551","ECCENTRICITY":"0.00007930","MEAN_MOTION_DOT":"0.00019633","SEMIMAJOR_AXIS":"6925.268","PERIOD":"95.590","CENTER_NAME":"EARTH","RCS_SIZE":"LARGE","OBJECT_NAME":"STARLINK-1294","APOAPSIS":"547.682","OBJECT_ID":"2020-025W","DECAY_DATE":null,"PERIAPSIS":"546.584","ELEMENT_SET_NO":"999","LAUNCH_DATE":"2020-04-22","REV_AT_EPOCH":"17405","MEAN_MOTION":"15.06426378","OBJECT_TYPE":"PAYLOAD","GP_ID":"233576905","SITE":"AFETR","MEAN_MOTION_DDOT":"0.0000000000000","BSTAR":"0.00133230000000","FILE":"3929125","ARG_OF_PERICENTER":"90.0275","TLE_LINE2":"2 45551  53.0538 273.5153 0000793  90.0275 270.0805 15.06426378174055","EPHEMERIS_TYPE":"0","REF_FRAME":"TEME","COUNTRY_CODE":"US","INCLINATION":"53.0538","TLE_LINE1":"1 45551U 20025W   23160.74170570  .00019633  00000-0  13323-2 0  9998","CLASSIFICATION_TYPE":"U","EPOCH":"2023-06-09T17:48:03.372480","TIME_SYSTEM":"UTC","MEAN_ANOMALY":"270.0805","MEAN_ELEMENT_THEORY":"SGP4","RA_OF_ASC_NODE":"273.5153"}];
